{
  "type": "FeatureCollection",
  "features": [
    {
      "type": "Feature",
      "properties": {
        "norad_id": 30004,
        "name": "FENGYUN 1C DEB",
        "group": "fengyun-1c-debris",
        "lat": -29.172927688951447,
        "lon": -11.207238924283494,
        "alt_km": 853.4354901909819,
        "timestamp": "2025-12-18T15:47:11.496243+00:00",
        "meta_object_name": "FENGYUN 1C DEB",
        "meta_object_id": "1999-025MD",
        "meta_epoch": "2025-12-18T07:09:58.926816",
        "meta_mean_motion": 14.17075318,
        "meta_eccentricity": 0.00385172,
        "meta_inclination": 99.2236,
        "meta_ra_of_asc_node": 173.625,
        "meta_arg_of_pericenter": 327.1073,
        "meta_mean_anomaly": 211.4752,
        "meta_ephemeris_type": 0,
        "meta_classification_type": "U",
        "meta_norad_cat_id": 30004,
        "meta_element_set_no": 999,
        "meta_rev_at_epoch": 97385,
        "meta_bstar": 0.00059623737,
        "meta_mean_motion_dot": 1.161e-05,
        "meta_mean_motion_ddot": 0,
        "tle_line1": "1 30004U 99025MD  25352.29859869  .00001161  00000+0  59624-3 0  9992",
        "tle_line2": "2 30004  99.2236 173.6250 0038517 327.1073 211.4752 14.17075318973852"
      },
      "geometry": {
        "type": "Point",
        "coordinates": [
          -11.207238924283494,
          -29.172927688951447
        ]
      }
    },
    {
      "type": "Feature",
      "properties": {
        "norad_id": 30005,
        "name": "FENGYUN 1C DEB",
        "group": "fengyun-1c-debris",
        "lat": 72.92954755116149,
        "lon": 166.50831092527477,
        "alt_km": 823.0521295025237,
        "timestamp": "2025-12-18T15:47:11.496253+00:00",
        "meta_object_name": "FENGYUN 1C DEB",
        "meta_object_id": "1999-025ME",
        "meta_epoch": "2025-12-17T19:45:59.637888",
        "meta_mean_motion": 13.52229556,
        "meta_eccentricity": 0.03470397,
        "meta_inclination": 99.3021,
        "meta_ra_of_asc_node": 313.4676,
        "meta_arg_of_pericenter": 80.5143,
        "meta_mean_anomaly": 283.5034,
        "meta_ephemeris_type": 0,
        "meta_classification_type": "U",
        "meta_norad_cat_id": 30005,
        "meta_element_set_no": 999,
        "meta_rev_at_epoch": 93015,
        "meta_bstar": 0.0012025624,
        "meta_mean_motion_dot": 1.12e-05,
        "meta_mean_motion_ddot": 0,
        "tle_line1": "1 30005U 99025ME  25351.82360692  .00001120  00000+0  12026-2 0  9991",
        "tle_line2": "2 30005  99.3021 313.4676 0347039  80.5143 283.5034 13.52229556930154"
      },
      "geometry": {
        "type": "Point",
        "coordinates": [
          166.50831092527477,
          72.92954755116149
        ]
      }
    },
    {
      "type": "Feature",
      "properties": {
        "norad_id": 30007,
        "name": "FENGYUN 1C DEB",
        "group": "fengyun-1c-debris",
        "lat": 79.85264746080779,
        "lon": -170.3284254312064,
        "alt_km": 797.0783126445676,
        "timestamp": "2025-12-18T15:47:11.496264+00:00",
        "meta_object_name": "FENGYUN 1C DEB",
        "meta_object_id": "1999-025MG",
        "meta_epoch": "2025-12-18T05:51:55.352160",
        "meta_mean_motion": 14.25461569,
        "meta_eccentricity": 0.0065533,
        "meta_inclination": 99.1788,
        "meta_ra_of_asc_node": 253.8463,
        "meta_arg_of_pericenter": 359.4417,
        "meta_mean_anomaly": 125.3329,
        "meta_ephemeris_type": 0,
        "meta_classification_type": "U",
        "meta_norad_cat_id": 30007,
        "meta_element_set_no": 999,
        "meta_rev_at_epoch": 97434,
        "meta_bstar": 0.0014900278,
        "meta_mean_motion_dot": 3.552e-05,
        "meta_mean_motion_ddot": 0,
        "tle_line1": "1 30007U 99025MG  25352.24439065  .00003552  00000+0  14900-2 0  9995",
        "tle_line2": "2 30007  99.1788 253.8463 0065533 359.4417 125.3329 14.25461569974345"
      },
      "geometry": {
        "type": "Point",
        "coordinates": [
          -170.3284254312064,
          79.85264746080779
        ]
      }
    },
    {
      "type": "Feature",
      "properties": {
        "norad_id": 30008,
        "name": "FENGYUN 1C DEB",
        "group": "fengyun-1c-debris",
        "lat": 47.28871122026665,
        "lon": 140.16666790988722,
        "alt_km": 647.6345808080514,
        "timestamp": "2025-12-18T15:47:11.496274+00:00",
        "meta_object_name": "FENGYUN 1C DEB",
        "meta_object_id": "1999-025MH",
        "meta_epoch": "2025-12-18T03:46:51.725568",
        "meta_mean_motion": 14.66412661,
        "meta_eccentricity": 0.00391626,
        "meta_inclination": 99.369,
        "meta_ra_of_asc_node": 309.2935,
        "meta_arg_of_pericenter": 175.0251,
        "meta_mean_anomaly": 197.828,
        "meta_ephemeris_type": 0,
        "meta_classification_type": "U",
        "meta_norad_cat_id": 30008,
        "meta_element_set_no": 999,
        "meta_rev_at_epoch": 99139,
        "meta_bstar": 0.0012386502,
        "meta_mean_motion_dot": 6.871e-05,
        "meta_mean_motion_ddot": 0,
        "tle_line1": "1 30008U 99025MH  25352.15754312  .00006871  00000+0  12387-2 0  9995",
        "tle_line2": "2 30008  99.3690 309.2935 0039162 175.0251 197.8280 14.66412661991395"
      },
      "geometry": {
        "type": "Point",
        "coordinates": [
          140.16666790988722,
          47.28871122026665
        ]
      }
    },
    {
      "type": "Feature",
      "properties": {
        "norad_id": 30009,
        "name": "FENGYUN 1C DEB",
        "group": "fengyun-1c-debris",
        "lat": -36.541644304700505,
        "lon": 54.297333509505165,
        "alt_km": 836.9377588843336,
        "timestamp": "2025-12-18T15:47:11.496284+00:00",
        "meta_object_name": "FENGYUN 1C DEB",
        "meta_object_id": "1999-025MJ",
        "meta_epoch": "2025-12-18T02:17:11.114592",
        "meta_mean_motion": 14.04869826,
        "meta_eccentricity": 0.00640207,
        "meta_inclination": 99.0145,
        "meta_ra_of_asc_node": 46.9826,
        "meta_arg_of_pericenter": 319.9159,
        "meta_mean_anomaly": 39.7294,
        "meta_ephemeris_type": 0,
        "meta_classification_type": "U",
        "meta_norad_cat_id": 30009,
        "meta_element_set_no": 999,
        "meta_rev_at_epoch": 96558,
        "meta_bstar": 0.00077644622,
        "meta_mean_motion_dot": 1.225e-05,
        "meta_mean_motion_ddot": 0,
        "tle_line1": "1 30009U 99025MJ  25352.09526753  .00001225  00000+0  77645-3 0  9992",
        "tle_line2": "2 30009  99.0145  46.9826 0064020 319.9159  39.7294 14.04869826965581"
      },
      "geometry": {
        "type": "Point",
        "coordinates": [
          54.297333509505165,
          -36.541644304700505
        ]
      }
    },
    {
      "type": "Feature",
      "properties": {
        "norad_id": 30010,
        "name": "FENGYUN 1C DEB",
        "group": "fengyun-1c-debris",
        "lat": -42.45625808961644,
        "lon": -3.390905235370012,
        "alt_km": 769.9426466748182,
        "timestamp": "2025-12-18T15:47:11.496294+00:00",
        "meta_object_name": "FENGYUN 1C DEB",
        "meta_object_id": "1999-025MK",
        "meta_epoch": "2025-12-18T07:09:50.076000",
        "meta_mean_motion": 14.24991177,
        "meta_eccentricity": 0.00729117,
        "meta_inclination": 99.0695,
        "meta_ra_of_asc_node": 184.6414,
        "meta_arg_of_pericenter": 193.3281,
        "meta_mean_anomaly": 347.2381,
        "meta_ephemeris_type": 0,
        "meta_classification_type": "U",
        "meta_norad_cat_id": 30010,
        "meta_element_set_no": 999,
        "meta_rev_at_epoch": 98339,
        "meta_bstar": 0.00011518672,
        "meta_mean_motion_dot": 2.3e-06,
        "meta_mean_motion_ddot": 0,
        "tle_line1": "1 30010U 99025MK  25352.29849625  .00000230  00000+0  11519-3 0  9995",
        "tle_line2": "2 30010  99.0695 184.6414 0072911 193.3281 347.2381 14.24991177983394"
      },
      "geometry": {
        "type": "Point",
        "coordinates": [
          -3.390905235370012,
          -42.45625808961644
        ]
      }
    },
    {
      "type": "Feature",
      "properties": {
        "norad_id": 30012,
        "name": "FENGYUN 1C DEB",
        "group": "fengyun-1c-debris",
        "lat": 58.49077312269021,
        "lon": 30.159801925605255,
        "alt_km": 902.4300301517551,
        "timestamp": "2025-12-18T15:47:11.496304+00:00",
        "meta_object_name": "FENGYUN 1C DEB",
        "meta_object_id": "1999-025MM",
        "meta_epoch": "2025-12-18T03:39:47.872224",
        "meta_mean_motion": 13.85769303,
        "meta_eccentricity": 0.0137189,
        "meta_inclination": 99.4637,
        "meta_ra_of_asc_node": 45.4381,
        "meta_arg_of_pericenter": 131.3409,
        "meta_mean_anomaly": 291.3355,
        "meta_ephemeris_type": 0,
        "meta_classification_type": "U",
        "meta_norad_cat_id": 30012,
        "meta_element_set_no": 999,
        "meta_rev_at_epoch": 95623,
        "meta_bstar": 0.00024797638,
        "meta_mean_motion_dot": 2.61e-06,
        "meta_mean_motion_ddot": 0,
        "tle_line1": "1 30012U 99025MM  25352.15263741  .00000261  00000+0  24798-3 0  9998",
        "tle_line2": "2 30012  99.4637  45.4381 0137189 131.3409 291.3355 13.85769303956239"
      },
      "geometry": {
        "type": "Point",
        "coordinates": [
          30.159801925605255,
          58.49077312269021
        ]
      }
    }
  ]
}